P/2021 L2 (Leonard),e,21.0651,266.6543,51.4941,4.048475,0.1209949,0.52080416,123.2018,05/07.0/2024,2000,g 17.0,4.0
# From MPEC 2024-H50
C/2021 L3 (Borisov),h,02/14.6581/2022,78.5639,344.9963,91.6315,1.004462,8.458673,2000,6.0,4.0
# From MPEC 2022-TA0
P/2021 N1 (ZTF),e,11.4894,301.1492,21.2390,2.978753,0.1917133,0.67597247,204.3636,05/07.0/2024,2000,g 19.0,4.0
# From MPEC 2024-GJ3
P/2021 N2 (Fuls),e,13.0612,221.7317,177.5494,6.943087,0.0538735,0.45255932,48.7406,05/07.0/2024,2000,g  9.5,4.0
# From MPEC 2022-YB4
C/2021 N3 (PANSTARRS),e,26.7490,337.5024,304.7125,145.6913,0.0005605,0.96076073,0.7610,05/07.0/2024,2000,g  8.5,4.0
# From MPEC 2022-A21
C/2021 O1 (Nishimura),e,27.5943,41.5928,74.3908,2836,0.0000065,0.99972364,0.0000,08/14.2903/2021,2000,g 10.5,4.0
# From MPEC 2022-L66
C/2021 O3 (PANSTARRS),h,04/21.1143/2022,56.8004,188.9566,299.9582,1.000043,0.286057,2000,10.5,4.0
# From MPEC 2024-F34
C/2021 P1 (PANSTARRS),e,51.6341,359.6880,40.5000,2875,0.0000064,0.99847783,0.0000,06/02.5994/2022,2000,g 11.0,4.0
# From MPEC 2023-R20
C/2021 P2 (PANSTARRS),e,150.0627,32.0830,76.7193,5150,0.0000027,0.99901557,0.0000,01/22.9904/2023,2000,g  9.0,4.0
# From MPEC 2024-GJ3
P/2021 P3 (PANSTARRS),e,27.1614,358.2445,334.0797,4.412422,0.1063380,0.33868414,114.1448,05/07.0/2024,2000,g 14.0,4.0
# From MPEC 2023-A50
C/2021 P4 (ATLAS),e,56.3266,348.0649,175.7952,297.0690,0.0001925,0.99636608,0.0000,07/30.3382/2022,2000,g  9.5,4.0
# From MPEC 2023-E68
P/2021 PE20 (ATLAS),e,20.0015,99.6264,210.4679,3.745938,0.1359450,0.66997924,144.8548,05/07.0/2024,2000,g 17.0,4.0
# From MPEC 2023-FK0
C/2021 Q3 (ATLAS),e,77.7384,307.9148,114.1184,75.61893,0.0014989,0.93115731,1.2466,05/07.0/2024,2000,g  8.0,4.0
# From MPEC 2024-BE0
C/2021 Q4 (Fuls),h,06/11.4240/2023,71.4862,183.3279,147.0672,1.002880,7.565338,2000,6.0,4.0
# From MPEC 2022-C56
P/2021 Q5 (ATLAS),e,10.7397,239.7572,180.9337,3.286882,0.1653971,0.62466737,162.1034,05/07.0/2024,2000,g 15.0,4.0
# From MPEC 2023-XP6
C/2021 Q6 (PANSTARRS),h,03/25.1051/2024,161.8456,133.5392,141.0280,1.001415,8.707850,2000,6.0,4.0
# From MPEC 2023-FK0
C/2021 QM45 (PANSTARRS),e,22.8154,354.5965,72.8580,389.8713,0.0001280,0.99288273,0.0000,08/13.6409/2022,2000,g 11.0,4.0
# From MPEC 2022-X67
P/2021 R1 (PANSTARRS),e,5.5218,143.2398,220.2357,8.296737,0.0412423,0.41116553,36.0938,05/07.0/2024,2000,g 11.0,4.0
# From MPEC 2022-X67
C/2021 R2 (PANSTARRS),e,134.4836,16.3079,32.5047,4176,0.0000037,0.99824797,0.0000,12/27.7714/2021,2000,g  7.5,4.0
# From MPEC 2021-W31
P/2021 R3 (PANSTARRS),e,19.9328,304.1943,2.6935,3.770973,0.1345935,0.33102796,145.0460,05/07.0/2024,2000,g 16.0,4.0
# From MPEC 2021-W31
P/2021 R4 (Wierzchos),e,21.0252,321.2951,56.7175,5.625346,0.0738721,0.58580530,69.1442,05/07.0/2024,2000,g 16.0,4.0
# From MPEC 2024-JC2
P/2021 R5 (Rankin),e,7.8545,219.9540,167.5405,4.795848,0.0938439,0.30647180,79.3243,05/07.0/2024,2000,g 12.0,4.0
# From MPEC 2021-W31
P/2021 R6 (Groeller),e,34.9149,176.1596,220.8191,6.285239,0.0625491,0.59338817,57.4076,05/07.0/2024,2000,g 14.5,4.0
# From MPEC 2022-X67
C/2021 R7 (PANSTARRS),e,158.8640,170.1697,140.3149,872.3772,0.0000383,0.99352130,0.0000,04/16.6262/2021,2000,g 10.5,4.0
# From MPEC 2021-Y10
P/2021 R8 (Sheppard),e,2.2032,167.0745,190.8340,3.019071,0.1878859,0.29302912,177.1154,05/07.0/2024,2000,g 18.5,4.0
# From MPEC 2023-J29
C/2021 S1 (ATLAS),h,03/01.5324/2022,52.0530,299.8702,148.2377,1.002583,6.120896,2000,7.0,4.0
# From MPEC 2024-JC2
C/2021 S3 (PANSTARRS),h,02/14.7097/2024,58.5330,215.6212,6.8536,1.000263,1.320208,2000,5.5,4.0
# From MPEC 2024-GJ3
C/2021 S4 (Tsuchinshan),e,17.4782,5.4813,72.9315,162.3395,0.0004765,0.95879363,0.0596,05/07.0/2024,2000,g  6.5,4.0
# From MPEC 2022-OB6
C/2021 T1 (Lemmon),e,140.3614,56.8444,51.5622,1911,0.0000118,0.99839829,0.0000,10/14.3932/2021,2000,g 12.5,4.0
# From MPEC 2023-A50
C/2021 T2 (Fuls),h,06/08.0573/2022,117.5386,223.2336,263.5843,1.000508,1.246682,2000,12.0,4.0
# From MPEC 2024-JC2
C/2021 T4 (Lemmon),e,160.7781,257.8877,329.8170,24925,0.0000003,0.99994050,0.0000,07/31.5407/2023,2000,g  7.5,4.0
# From MPEC 2022-ED3
P/2021 U1 (Wierzchos),e,30.5519,246.7915,145.1670,8.533565,0.0395374,0.71300020,37.5154,05/07.0/2024,2000,g 14.5,4.0
# From MPEC 2022-L66
P/2021 U3 (Attard-Maury),e,69.9610,75.0959,335.2771,4.195063,0.1147087,0.54979633,106.1147,05/07.0/2024,2000,g 15.5,4.0
# From MPEC 2021-W31
C/2021 U4 (Leonard),e,152.8894,241.8085,237.3337,45.22096,0.0032411,0.96043988,2.8097,05/07.0/2024,2000,g 17.0,4.0
# From MPEC 2022-WQ9
C/2021 U5 (Catalina),e,39.0450,182.7328,321.4261,217.7340,0.0003068,0.98915881,0.0000,01/26.6795/2022,2000,g 13.0,4.0
# From MPEC 2022-CN4
C/2021 V1 (Rankin),e,71.4520,207.6717,195.1705,674.4722,0.0000563,0.99552820,0.0000,04/30.5795/2022,2000,g 13.0,4.0
# From MPEC 2024-JC2
P/2021 V2 (Fuls),e,12.6949,232.2756,259.8553,9.075627,0.0360487,0.61472811,16.9942,05/07.0/2024,2000,g 10.0,4.0
# From MPEC 2024-JC2
C/2021 X1 (Maury-Attard),h,05/27.1387/2023,140.0986,10.5926,334.5660,1.000257,3.233486,2000,7.0,4.0
# From MPEC 2024-E08
C/2021 X2 (Bok),h,07/08.1188/2022,137.1610,228.8238,193.3206,1.000966,2.995941,2000,13.0,4.0
# From MPEC 2024-GJ3
C/2021 Y1 (ATLAS),h,04/30.7604/2023,77.1940,244.7671,245.8340,1.001181,2.032549,2000,7.0,4.0
# From MPEC 2022-YN2
C/2022 A1 (Sarneczky),e,116.5381,285.5073,201.2434,352.5200,0.0001489,0.99644195,0.0000,01/31.0515/2022,2000,g 18.0,4.0
# From MPEC 2024-DC6
C/2022 A2 (PANSTARRS),h,02/18.2275/2023,108.1336,171.5837,88.3678,1.000243,1.735457,2000,9.5,4.0
# From MPEC 2024-JC2
C/2022 A3 (Lemmon-ATLAS),e,88.3410,325.4733,234.8521,863.1938,0.0000389,0.99570934,0.0000,09/28.8732/2023,2000,g  8.0,4.0
# From MPEC 2022-K19
P/2022 B1 (Wierzchos),e,10.9905,325.4294,148.8731,5.467234,0.0770997,0.65339080,61.7904,05/07.0/2024,2000,g 16.5,4.0
# From MPEC 2022-YB4
A/2022 B3,e,132.0538,286.1879,150.6954,698.6214,0.0000534,0.99470327,0.0000,01/17.1765/2022,2000,g 16.5,2.0
# From MPEC 2022-GA9
C/2022 B4 (Bok),e,20.0472,340.5983,152.9527,385.4729,0.0001302,0.99642744,0.0000,01/30.0695/2022,2000,g 21.0,4.0
# From MPEC 2023-J29
P/2022 BV9 (Lemmon),e,11.9292,337.3101,16.3170,4.363410,0.1081347,0.23422249,139.6287,05/07.0/2024,2000,g  9.5,4.0
# From MPEC 2023-J29
P/2022 C1 (PANSTARRS),e,4.7623,113.1168,9.3713,7.227712,0.0507228,0.44875259,46.3757,05/07.0/2024,2000,g 12.0,4.0
# From MPEC 2023-VM5
P/2022 C2 (PANSTARRS),e,9.9827,135.2605,89.2163,6.036616,0.0664529,0.44186148,42.5266,05/07.0/2024,2000,g 12.5,4.0
# From MPEC 2023-UR6
P/2022 C3 (PANSTARRS),e,12.8205,139.0412,93.8737,9.623152,0.0330163,0.54556127,22.3339,05/07.0/2024,2000,g 11.5,4.0
# From MPEC 2022-K19
P/2022 D1 (PANSTARRS),e,44.0777,47.9584,88.6571,7.403398,0.0489280,0.54757669,48.0859,05/07.0/2024,2000,g 12.5,4.0
# From MPEC 2022-K19
C/2022 D2 (Kowalski),e,22.6641,312.4113,177.8028,375.3905,0.0001355,0.99586217,0.0000,03/27.7180/2022,2000,g 17.0,4.0
# From MPEC 2024-JC2
C/2022 E2 (ATLAS),h,09/14.1044/2024,137.1255,125.3703,41.7148,1.000795,3.666334,2000,5.0,4.0
# From MPEC 2024-GJ3
C/2022 E3 (ZTF),h,01/12.7167/2023,109.1684,302.5479,145.8094,1.000066,1.112468,2000,7.5,4.0
# From MPEC 2024-GJ3
C/2022 F1 (ATLAS),e,57.9843,350.6430,278.2926,4130,0.0000037,0.99855328,0.0000,08/05.2037/2022,2000,g  7.0,4.0
# From MPEC 2022-QD9
C/2022 F2 (NEOWISE),e,97.3141,58.7830,200.6226,23.97167,0.0083976,0.93372608,6.5154,05/07.0/2024,2000,g 14.5,4.0
# From MPEC 2024-GJ3
C/2022 H1 (PANSTARRS),e,49.8612,6.3520,246.3054,902.0398,0.0000364,0.99147504,0.0000,01/19.1217/2024,2000,g  6.0,4.0
# From MPEC 2022-VC5
C/2022 J1 (Maury-Attard),e,105.9530,280.7699,305.6596,47.61132,0.0030001,0.96632184,2.4238,05/07.0/2024,2000,g 14.9,4.0
# From MPEC 2023-M14
C/2022 J2 (Bok),e,149.1375,252.6478,133.0725,90.39177,0.0011469,0.97980527,0.0000,10/26.9498/2022,2000,g  9.0,4.0
# From MPEC 2024-GJ3
C/2022 JK5 (PANSTARRS),e,16.8325,59.6444,247.2564,43.87784,0.0033911,0.93871886,1.2679,05/07.0/2024,2000,g 11.0,4.0
# From MPEC 2022-ST7
C/2022 K1 (Leonard),h,12/17.1961/2021,41.9652,136.3364,142.6322,1.001838,3.988891,2000,11.0,4.0
# From MPEC 2023-CD7
C/2022 L1 (Catalina),e,123.4490,300.0328,59.8345,496.0344,0.0000892,0.99679255,0.0000,09/28.1785/2022,2000,g 15.8,4.0
# From MPEC 2024-JC2
C/2022 L2 (ATLAS),h,03/12.2636/2024,129.3140,39.2413,199.9180,1.001354,2.692737,2000,6.5,4.0
# From MPEC 2024-DC6
P/2022 L3 (ATLAS),e,21.5427,29.8082,10.3680,6.503127,0.0594320,0.62770909,32.9846,05/07.0/2024,2000,g 16.5,4.0
# From MPEC 2022-N37
C/2022 L4 (PANSTARRS),e,141.2449,66.0655,125.3213,285.7929,0.0002040,0.98945618,0.0000,12/08.9395/2021,2000,g 14.0,4.0
# From MPEC 2024-GJ3
C/2022 N1 (Attard-Maury),e,164.7337,301.8747,41.0427,36.98295,0.0043823,0.95997070,2.6511,05/07.0/2024,2000,g 16.9,4.0
# From MPEC 2024-JC2
C/2022 N2 (PANSTARRS),h,07/31.6260/2025,5.5027,319.7398,75.3666,1.003672,3.826041,2000,6.0,4.0
# From MPEC 2024-A43
C/2022 O1 (ATLAS),h,02/15.9157/2022,71.0413,49.9173,268.9339,1.002905,7.432763,2000,6.0,4.0
# From MPEC 2023-HD1
P/2022 O2 (PANSTARRS),e,9.4232,330.4914,48.6394,6.305634,0.0622459,0.72129631,30.2504,05/07.0/2024,2000,g 16.2,4.0
# From MPEC 2023-N01
C/2022 P1 (NEOWISE),e,154.6032,205.0819,249.9366,18.48414,0.0124024,0.91372157,6.5167,05/07.0/2024,2000,g 13.0,4.0
# From MPEC 2023-XP6
P/2022 P2 (ZTF),e,12.4399,291.2009,137.6868,4.488960,0.1036300,0.55818796,69.0204,05/07.0/2024,2000,g 12.5,4.0
# From MPEC 2023-HD1
C/2022 P3 (ZTF),e,59.5170,72.2184,0.1514,253.1653,0.0002447,0.98987644,0.0000,07/27.4600/2022,2000,g  9.0,4.0
# From MPEC 2023-R20
C/2022 Q2 (ATLAS),e,151.4800,352.9524,44.0702,32.85347,0.0052340,0.94996490,2.4147,05/07.0/2024,2000,g 13.0,4.0
# From MPEC 2024-GJ3
C/2022 QE78 (ATLAS),h,09/10.2647/2025,36.5522,119.9372,0.3893,1.004043,5.479546,2000,5.0,4.0
# From MPEC 2023-W26
P/2022 R1 (PANSTARRS),e,7.3719,175.8920,221.9930,7.206091,0.0509512,0.50437388,10.8522,05/07.0/2024,2000,g 11.5,4.0
# From MPEC 2022-Y15
C/2022 R2 (ATLAS),e,52.9074,60.4127,78.3393,422.0924,0.0001137,0.99850352,0.0000,10/25.2969/2022,2000,g 17.0,4.0
# From MPEC 2024-JC2
